{
  "norad_id": 22988,
  "name": "USA 99 (MILSTAR-1 1)",
  "history": [
    {
      "epoch": "2026-03-28T07:54:38.768832",
      "apogee_km": 35802.85370269429,
      "perigee_km": 35769.47559822175,
      "latitude_deg": -11.202769597119836,
      "longitude_deg": 110.4430764799472,
      "semi_major_axis_km": 42164.301650458016,
      "eccentricity": 0.00039581,
      "inclination_deg": 17.4988,
      "raan_deg": 28.5814,
      "arg_perigee_deg": 324.3153,
      "mean_anomaly_deg": 221.5262,
      "mean_motion_rev_day": 1.0027332
    }
  ]
}